start=new Date('2022-11-16T00:00:00.000Z').valueOf();
sats=[{"OBJECT_NAME":"STARLINK-2689","RCS_SIZE":"LARGE","LAUNCH_DATE":"2021-05-09","OBJECT_ID":"2021-040AM","PERIOD":"95.592","MEAN_MOTION_DDOT":"0.0000000000000","SEMIMAJOR_AXIS":"6925.352","MEAN_MOTION":"15.06398960","ECCENTRICITY":"0.00015290","ARG_OF_PERICENTER":"81.9576","TLE_LINE1":"1 48463U 21040AM  22319.88796514  .00000370  00000-0  43751-4 0  9991","MEAN_ELEMENT_THEORY":"SGP4","INCLINATION":"53.0527","CLASSIFICATION_TYPE":"U","EPHEMERIS_TYPE":"0","ELEMENT_SET_NO":"999","COUNTRY_CODE":"US","CENTER_NAME":"EARTH","GP_ID":"217904882","OBJECT_TYPE":"PAYLOAD","MEAN_MOTION_DOT":"0.00000370","APOAPSIS":"548.276","PERIAPSIS":"546.158","REF_FRAME":"TEME","TIME_SYSTEM":"UTC","TLE_LINE2":"2 48463  53.0527 222.6424 0001529  81.9576 278.1586 15.06398960 84156","FILE":"3657961","RA_OF_ASC_NODE":"222.6424","SITE":"AFETR","REV_AT_EPOCH":"8415","DECAY_DATE":null,"EPOCH":"2022-11-15T21:18:40.188096","MEAN_ANOMALY":"278.1586","NORAD_CAT_ID":"48463","BSTAR":"0.00004375100000"},{"ECCENTRICITY":"0.00017920","ARG_OF_PERICENTER":"72.1738","TLE_LINE1":"1 48464U 21040AN  22319.13697036 -.00000214  00000-0  45356-5 0  9991","INCLINATION":"53.0541","EPHEMERIS_TYPE":"0","CLASSIFICATION_TYPE":"U","MEAN_ELEMENT_THEORY":"SGP4","OBJECT_ID":"2021-040AN","PERIOD":"95.592","OBJECT_NAME":"STARLINK-2686","RCS_SIZE":"MEDIUM","LAUNCH_DATE":"2021-05-09","SEMIMAJOR_AXIS":"6925.327","MEAN_MOTION":"15.06406920","MEAN_MOTION_DDOT":"0.0000000000000","SITE":"AFETR","REV_AT_EPOCH":"8403","FILE":"3657603","TLE_LINE2":"2 48464  53.0541 226.0104 0001792  72.1738 287.9446 15.06406920 84036","RA_OF_ASC_NODE":"226.0104","BSTAR":"0.00000453560000","DECAY_DATE":null,"EPOCH":"2022-11-15T03:17:14.239104","MEAN_ANOMALY":"287.9446","NORAD_CAT_ID":"48464","MEAN_MOTION_DOT":"-0.00000214","CENTER_NAME":"EARTH","COUNTRY_CODE":"US","ELEMENT_SET_NO":"999","GP_ID":"217845043","OBJECT_TYPE":"PAYLOAD","TIME_SYSTEM":"UTC","REF_FRAME":"TEME","APOAPSIS":"548.433","PERIAPSIS":"545.951"},{"DECAY_DATE":null,"MEAN_ANOMALY":"303.2085","EPOCH":"2022-11-15T21:04:06.226176","NORAD_CAT_ID":"48465","BSTAR":"0.00034437000000","FILE":"3657961","TLE_LINE2":"2 48465  53.0523 222.6692 0001878  56.9084 303.2085 15.06401561 84150","RA_OF_ASC_NODE":"222.6692","SITE":"AFETR","REV_AT_EPOCH":"8415","APOAPSIS":"548.509","PERIAPSIS":"545.908","TIME_SYSTEM":"UTC","REF_FRAME":"TEME","COUNTRY_CODE":"US","CENTER_NAME":"EARTH","ELEMENT_SET_NO":"999","GP_ID":"217903881","OBJECT_TYPE":"PAYLOAD","MEAN_MOTION_DOT":"0.00004852","MEAN_ELEMENT_THEORY":"SGP4","INCLINATION":"53.0523","CLASSIFICATION_TYPE":"U","EPHEMERIS_TYPE":"0","ECCENTRICITY":"0.00018780","ARG_OF_PERICENTER":"56.9084","TLE_LINE1":"1 48465U 21040AP  22319.87784984  .00004852  00000-0  34437-3 0  9999","MEAN_MOTION_DDOT":"0.0000000000000","SEMIMAJOR_AXIS":"6925.344","MEAN_MOTION":"15.06401561","RCS_SIZE":"LARGE","OBJECT_NAME":"STARLINK-2681","LAUNCH_DATE":"2021-05-09","OBJECT_ID":"2021-040AP","PERIOD":"95.592"},{"TLE_LINE2":"2 48466  53.0537 223.3417 0002069  52.4916 307.6261 15.06394265 84131","FILE":"3657961","RA_OF_ASC_NODE":"223.3417","SITE":"AFETR","REV_AT_EPOCH":"8413","DECAY_DATE":null,"NORAD_CAT_ID":"48466","EPOCH":"2022-11-15T17:31:47.840448","MEAN_ANOMALY":"307.6261","BSTAR":"0.00036068000000","GP_ID":"217904131","ELEMENT_SET_NO":"999","COUNTRY_CODE":"US","CENTER_NAME":"EARTH","OBJECT_TYPE":"PAYLOAD","MEAN_MOTION_DOT":"0.00005094","PERIAPSIS":"545.798","APOAPSIS":"548.664","TIME_SYSTEM":"UTC","REF_FRAME":"TEME","ARG_OF_PERICENTER":"52.4916","ECCENTRICITY":"0.00020690","TLE_LINE1":"1 48466U 21040AQ  22319.73041482  .00005094  00000-0  36068-3 0  9995","MEAN_ELEMENT_THEORY":"SGP4","INCLINATION":"53.0537","EPHEMERIS_TYPE":"0","CLASSIFICATION_TYPE":"U","LAUNCH_DATE":"2021-05-09","RCS_SIZE":"LARGE","OBJECT_NAME":"STARLINK-2687","OBJECT_ID":"2021-040AQ","PERIOD":"95.593","MEAN_MOTION_DDOT":"0.0000000000000","MEAN_MOTION":"15.06394265","SEMIMAJOR_AXIS":"6925.366"},{"APOAPSIS":"548.468","PERIAPSIS":"545.993","REF_FRAME":"TEME","TIME_SYSTEM":"UTC","OBJECT_TYPE":"PAYLOAD","COUNTRY_CODE":"US","CENTER_NAME":"EARTH","ELEMENT_SET_NO":"999","GP_ID":"217904383","MEAN_MOTION_DOT":"0.00001801","EPOCH":"2022-11-15T21:20:01.609728","MEAN_ANOMALY":"289.3762","NORAD_CAT_ID":"48467","DECAY_DATE":null,"BSTAR":"0.00013983000000","TLE_LINE2":"2 48467  53.0548 222.6377 0001787  70.7421 289.3762 15.06394358 84158","RA_OF_ASC_NODE":"222.6377","FILE":"3657961","REV_AT_EPOCH":"8415","SITE":"AFETR","MEAN_MOTION_DDOT":"0.0000000000000","SEMIMAJOR_AXIS":"6925.366","MEAN_MOTION":"15.06394358","OBJECT_NAME":"STARLINK-2659","RCS_SIZE":"LARGE","LAUNCH_DATE":"2021-05-09","PERIOD":"95.592","OBJECT_ID":"2021-040AR","MEAN_ELEMENT_THEORY":"SGP4","EPHEMERIS_TYPE":"0","CLASSIFICATION_TYPE":"U","INCLINATION":"53.0548","TLE_LINE1":"1 48467U 21040AR  22319.88890752  .00001801  00000-0  13983-3 0  9997","ECCENTRICITY":"0.00017870","ARG_OF_PERICENTER":"70.7421"},{"PERIAPSIS":"545.949","APOAPSIS":"548.485","TIME_SYSTEM":"UTC","REF_FRAME":"TEME","OBJECT_TYPE":"PAYLOAD","GP_ID":"217844543","COUNTRY_CODE":"US","ELEMENT_SET_NO":"999","CENTER_NAME":"EARTH","MEAN_MOTION_DOT":"0.00001535","NORAD_CAT_ID":"48468","MEAN_ANOMALY":"296.5884","EPOCH":"2022-11-15T11:20:14.629056","DECAY_DATE":null,"BSTAR":"0.00012191000000","RA_OF_ASC_NODE":"224.5090","TLE_LINE2":"2 48468  53.0554 224.5090 0001831  63.5292 296.5884 15.06398832 84094","FILE":"3657603","REV_AT_EPOCH":"8409","SITE":"AFETR","MEAN_MOTION_DDOT":"0.0000000000000","MEAN_MOTION":"15.06398832","SEMIMAJOR_AXIS":"6925.352","LAUNCH_DATE":"2021-05-09","RCS_SIZE":"LARGE","OBJECT_NAME":"STARLINK-2685","PERIOD":"95.592","OBJECT_ID":"2021-040AS","MEAN_ELEMENT_THEORY":"SGP4","CLASSIFICATION_TYPE":"U","EPHEMERIS_TYPE":"0","INCLINATION":"53.0554","TLE_LINE1":"1 48468U 21040AS  22319.47239154  .00001535  00000-0  12191-3 0  9990","ARG_OF_PERICENTER":"63.5292","ECCENTRICITY":"0.00018310"},{"PERIAPSIS":"546.097","APOAPSIS":"548.393","REF_FRAME":"TEME","TIME_SYSTEM":"UTC","GP_ID":"217903382","COUNTRY_CODE":"US","ELEMENT_SET_NO":"999","CENTER_NAME":"EARTH","OBJECT_TYPE":"PAYLOAD","MEAN_MOTION_DOT":"0.00003152","DECAY_DATE":null,"NORAD_CAT_ID":"48469","MEAN_ANOMALY":"287.7245","EPOCH":"2022-11-15T21:14:43.112544","BSTAR":"0.00023049000000","RA_OF_ASC_NODE":"222.6350","TLE_LINE2":"2 48469  53.0539 222.6350 0001658  72.3925 287.7245 15.06389660 84153","FILE":"3657961","SITE":"AFETR","REV_AT_EPOCH":"8415","MEAN_MOTION_DDOT":"0.0000000000000","MEAN_MOTION":"15.06389660","SEMIMAJOR_AXIS":"6925.380","LAUNCH_DATE":"2021-05-09","OBJECT_NAME":"STARLINK-2661","RCS_SIZE":"LARGE","OBJECT_ID":"2021-040AT","PERIOD":"95.593","MEAN_ELEMENT_THEORY":"SGP4","INCLINATION":"53.0539","EPHEMERIS_TYPE":"0","CLASSIFICATION_TYPE":"U","ARG_OF_PERICENTER":"72.3925","ECCENTRICITY":"0.00016580","TLE_LINE1":"1 48469U 21040AT  22319.88522121  .00003152  00000-0  23049-3 0  9996"},{"TLE_LINE1":"1 48470U 21040AU  22319.48250260 -.00000031  00000-0  16865-4 0  9999","ECCENTRICITY":"0.00021550","ARG_OF_PERICENTER":"48.3908","CLASSIFICATION_TYPE":"U","EPHEMERIS_TYPE":"0","INCLINATION":"53.0557","MEAN_ELEMENT_THEORY":"SGP4","PERIOD":"95.592","OBJECT_ID":"2021-040AU","OBJECT_NAME":"STARLINK-2675","RCS_SIZE":"LARGE","LAUNCH_DATE":"2021-05-09","SEMIMAJOR_AXIS":"6925.333","MEAN_MOTION":"15.06405071","MEAN_MOTION_DDOT":"0.0000000000000","REV_AT_EPOCH":"8536","SITE":"AFETR","TLE_LINE2":"2 48470  53.0557 224.4475 0002155  48.3908 311.7266 15.06405071 85360","RA_OF_ASC_NODE":"224.4475","FILE":"3657836","BSTAR":"0.00001686500000","EPOCH":"2022-11-15T11:34:48.224640","MEAN_ANOMALY":"311.7266","NORAD_CAT_ID":"48470","DECAY_DATE":null,"MEAN_MOTION_DOT":"-0.00000031","OBJECT_TYPE":"PAYLOAD","ELEMENT_SET_NO":"999","COUNTRY_CODE":"US","CENTER_NAME":"EARTH","GP_ID":"217880094","REF_FRAME":"TEME","TIME_SYSTEM":"UTC","APOAPSIS":"548.690","PERIAPSIS":"545.706"},{"LAUNCH_DATE":"2021-05-09","RCS_SIZE":"LARGE","OBJECT_NAME":"STARLINK-2684","PERIOD":"95.593","OBJECT_ID":"2021-040AV","MEAN_MOTION_DDOT":"0.0000000000000","MEAN_MOTION":"15.06392214","SEMIMAJOR_AXIS":"6925.372","TLE_LINE1":"1 48471U 21040AV  22319.87417722  .00003985  00000-0  28632-3 0  9995","ARG_OF_PERICENTER":"62.5782","ECCENTRICITY":"0.00016570","MEAN_ELEMENT_THEORY":"SGP4","EPHEMERIS_TYPE":"0","CLASSIFICATION_TYPE":"U","INCLINATION":"53.0540","OBJECT_TYPE":"PAYLOAD","GP_ID":"217904883","COUNTRY_CODE":"US","CENTER_NAME":"EARTH","ELEMENT_SET_NO":"999","MEAN_MOTION_DOT":"0.00003985","PERIAPSIS":"546.090","APOAPSIS":"548.385","TIME_SYSTEM":"UTC","REF_FRAME":"TEME","FILE":"3657961","TLE_LINE2":"2 48471  53.0540 222.6846 0001657  62.5782 297.5376 15.06392214 84141","RA_OF_ASC_NODE":"222.6846","REV_AT_EPOCH":"8414","SITE":"AFETR","NORAD_CAT_ID":"48471","MEAN_ANOMALY":"297.5376","EPOCH":"2022-11-15T20:58:48.911808","DECAY_DATE":null,"BSTAR":"0.00028632000000"},{"ARG_OF_PERICENTER":"50.4905","ECCENTRICITY":"0.00017480","TLE_LINE1":"1 48472U 21040AW  22319.45765432  .00003852  00000-0  27734-3 0  9999","MEAN_ELEMENT_THEORY":"SGP4","INCLINATION":"53.0536","EPHEMERIS_TYPE":"0","CLASSIFICATION_TYPE":"U","LAUNCH_DATE":"2021-05-09","OBJECT_NAME":"STARLINK-2722","RCS_SIZE":"LARGE","OBJECT_ID":"2021-040AW","PERIOD":"95.592","MEAN_MOTION_DDOT":"0.0000000000000","MEAN_MOTION":"15.06400158","SEMIMAJOR_AXIS":"6925.348","TLE_LINE2":"2 48472  53.0536 224.5707 0001748  50.4905 309.6238 15.06400158 84079","RA_OF_ASC_NODE":"224.5707","FILE":"3657603","SITE":"AFETR","REV_AT_EPOCH":"8407","DECAY_DATE":null,"NORAD_CAT_ID":"48472","MEAN_ANOMALY":"309.6238","EPOCH":"2022-11-15T10:59:01.333248","BSTAR":"0.00027734000000","GP_ID":"217845044","COUNTRY_CODE":"US","ELEMENT_SET_NO":"999","CENTER_NAME":"EARTH","OBJECT_TYPE":"PAYLOAD","MEAN_MOTION_DOT":"0.00003852","PERIAPSIS":"546.003","APOAPSIS":"548.424","TIME_SYSTEM":"UTC","REF_FRAME":"TEME"}];
